OBJECT_NAME,OBJECT_ID,EPOCH,MEAN_MOTION,ECCENTRICITY,INCLINATION,RA_OF_ASC_NODE,ARG_OF_PERICENTER,MEAN_ANOMALY,EPHEMERIS_TYPE,CLASSIFICATION_TYPE,NORAD_CAT_ID,ELEMENT_SET_NO,REV_AT_EPOCH,BSTAR,MEAN_MOTION_DOT,MEAN_MOTION_DDOT
CUTE-1 (CO-55),2003-031E,2026-05-17T11:29:52.232928,14.24315278,.00082829,98.6745,146.4240,275.4174,84.6060,0,U,27844,999,18730,.95960922E-4,.178E-5,0
CUBESAT XI-IV (CO-57),2003-031J,2026-05-16T23:02:39.219360,14.23602877,.0008323,98.6778,145.6494,298.5397,61.4943,0,U,27848,999,18693,.85081E-4,.15E-5,0
CUBESAT XI-V,2005-043F,2026-05-16T20:59:18.771648,14.72541900,.0012953,98.2950,291.8469,307.9672,52.0364,0,U,28895,999,9714,.12875E-3,.766E-5,0
CUTE-1.7+APD II (CO-65),2008-021C,2026-05-17T14:51:39.179808,15.09136511,.00103776,97.8267,118.4131,126.3709,233.8479,0,U,32785,999,98058,.23647525E-3,.3689E-4,0
CANX-2,2008-021H,2026-05-17T04:23:02.245632,15.05374272,.00114944,97.8621,116.3682,141.1467,219.0587,0,U,32790,999,98014,.12798637E-3,.1771E-4,0
SEEDS II (CO-66),2008-021J,2026-05-17T10:34:24.443616,15.31622759,.00048684,97.7519,133.8991,75.6870,284.4911,0,U,32791,999,98258,.38870093E-3,.11796E-3,0
SWISSCUBE,2009-051B,2026-05-17T05:50:21.731712,14.62416177,.00058989,98.4056,44.5912,319.4811,40.5950,0,U,35932,999,88463,.13112147E-3,.614E-5,0
BEESAT-1,2009-051C,2026-05-17T05:40:55.174080,14.61665049,.0004729,98.3985,44.2844,338.5961,21.5041,0,U,35933,999,88466,.11209088E-3,.509E-5,0
ITUPSAT1,2009-051E,2026-05-17T11:23:30.185952,14.60389786,.00071254,98.4070,43.7503,344.8531,15.2454,0,U,35935,999,88425,.10667842E-3,.468E-5,0
TISAT 1,2010-035E,2026-05-17T14:18:31.689504,15.30457796,.00030987,98.0707,81.4660,44.5280,315.6207,0,U,36799,999,86302,.43989373E-3,.1288E-3,0
AEROCUBE 4.5A,2012-048K,2026-05-17T09:24:32.438304,15.78938374,.00184642,64.6276,138.0179,216.2796,143.7107,0,U,38767,999,36777,.6888248E-3,.125574E-2,0
STRAND-1,2013-009E,2026-05-17T11:48:16.189920,14.37143622,.00079301,98.3916,318.4832,330.2368,29.8367,0,U,39090,999,69265,.67566405E-4,.158E-5,0
BRITE-AUSTRIA,2013-009F,2026-05-17T11:47:49.517376,14.36528845,.00096512,98.3987,317.6884,338.5598,21.5183,0,U,39091,999,69264,.47160573E-4,.96E-6,0
NEE-01 PEGASO,2013-018B,2026-05-17T07:32:20.976288,14.93494058,.00113175,98.1183,280.4553,265.0166,94.9761,0,U,39151,999,70609,.11551929E-3,.1155E-4,0
POPACS 2,2013-055E,2026-05-17T10:28:41.944512,14.90494992,.04186626,80.9915,179.3760,292.7198,63.0276,0,U,39269,999,65863,.15298792E-3,.8897E-4,0
POPACS 3,2013-055F,2026-05-17T14:26:19.677696,14.55353971,.0554808,81.0016,262.3265,162.9992,199.0663,0,U,39270,999,63410,.28456352E-3,.1196E-3,0
ZACUBE-1 (TSHEPISOSAT),2013-066B,2026-05-17T11:26:35.082816,15.00933527,.00412863,97.8123,99.6473,356.1921,3.8983,0,U,39417,999,67612,.23598271E-3,.2997E-4,0
WNISAT-1,2013-066H,2026-05-17T09:33:00.921312,14.58020816,.01623678,97.7164,288.7462,329.3204,29.8578,0,U,39423,999,66224,.6080252E-4,.283E-5,0
TRITON-1,2013-066M,2026-05-17T13:37:28.053984,14.81562867,.00896709,97.8273,48.0723,335.2026,24.4889,0,U,39427,999,66955,.22857889E-3,.1865E-4,0
GOMX-1,2013-066Q,2026-05-17T14:38:53.501280,14.69328363,.01288307,97.6504,340.0023,175.0480,185.2036,0,U,39430,999,66542,.19202555E-3,.1236E-4,0
CUBEBUG-2 (LO-74),2013-066AA,2026-05-17T13:57:37.351584,14.93506811,.00591307,97.8896,86.4411,127.8407,232.8184,0,U,39440,999,67242,.16723749E-3,.176E-4,0
NEE-02 KRYSAOR,2013-066AB,2026-05-17T13:58:53.192640,14.86492155,.0066455,97.8884,77.0216,168.7508,191.5212,0,U,39441,999,67165,.10813302E-3,.936E-5,0
FUNCUBE-1 (AO-73),2013-066AE,2026-05-17T11:49:51.301632,15.09062717,.00349222,97.8263,108.3115,310.4162,49.4020,0,U,39444,999,67503,.27395422E-3,.433E-4,0
UWE-3,2013-066AG,2026-05-17T14:23:58.792992,14.96740642,.00504959,97.8682,93.4792,62.4412,298.1926,0,U,39446,999,67300,.23593869E-3,.2704E-4,0
BRITE-CA1 (TORONTO),2014-033L,2026-05-17T14:21:36.724608,14.72631589,.00789372,97.9696,267.0985,15.8750,344.4905,0,U,40020,999,63771,.6650342E-4,.391E-5,0
DUCHIFAT-1,2014-033M,2026-05-17T13:59:16.401408,15.58842535,.00060257,98.0498,192.5945,175.1555,184.9759,0,U,40021,999,65097,.64188519E-3,.49774E-3,0
NANOSATC-BR1,2014-033Q,2026-05-17T13:13:16.924512,15.30414705,.00016871,98.0739,167.2471,296.5605,63.5460,0,U,40024,999,64929,.36421346E-3,.1063E-3,0
QB50P1,2014-033R,2026-05-17T11:57:46.912896,15.17746364,.0007888,98.0971,146.5048,342.5247,17.5712,0,U,40025,999,64837,.29821231E-3,.5948E-4,0
QB50P2,2014-033Y,2026-05-17T10:51:49.468032,15.14733069,.00056802,98.0752,132.4315,283.2435,76.8162,0,U,40032,999,64801,.25933173E-3,.4733E-4,0
PERSEUS-M2,2014-033AD,2026-05-17T14:51:20.274624,14.95411517,.00133102,97.9954,87.5426,46.4832,313.7492,0,U,40037,999,64621,.15969954E-3,.1706E-4,0
